start=new Date('2023-02-14T00:00:00.000Z').valueOf();
sats=[{"RA_OF_ASC_NODE":"110.5778","BSTAR":"0.00266120000000","ECCENTRICITY":"0.00012210","OBJECT_TYPE":"PAYLOAD","LAUNCH_DATE":"2021-05-26","RCS_SIZE":"LARGE","MEAN_MOTION":"15.06415521","MEAN_MOTION_DDOT":"0.0000000000000","SITE":"AFETR","FILE":"3789366","DECAY_DATE":null,"COUNTRY_CODE":"US","TIME_SYSTEM":"UTC","PERIAPSIS":"546.320","MEAN_ELEMENT_THEORY":"SGP4","CLASSIFICATION_TYPE":"U","PERIOD":"95.591","ARG_OF_PERICENTER":"94.8279","TLE_LINE2":"2 48641  53.0533 110.5778 0001221  94.8279 265.2850 15.06415521 94863","ELEMENT_SET_NO":"999","MEAN_MOTION_DOT":"0.00039597","OBJECT_NAME":"STARLINK-2754","EPHEMERIS_TYPE":"0","MEAN_ANOMALY":"265.2850","GP_ID":"225323999","TLE_LINE1":"1 48641U 21044D   23044.44894429  .00039597  00000-0  26612-2 0  9993","SEMIMAJOR_AXIS":"6925.301","CENTER_NAME":"EARTH","OBJECT_ID":"2021-044D","INCLINATION":"53.0533","REF_FRAME":"TEME","NORAD_CAT_ID":"48641","APOAPSIS":"548.012","REV_AT_EPOCH":"9486","EPOCH":"2023-02-13T10:46:28.786656"},{"EPHEMERIS_TYPE":"0","MEAN_ANOMALY":"271.6130","TLE_LINE1":"1 48642U 21044E   23044.19735835 -.00001166  00000-0 -59409-4 0  9996","GP_ID":"225323269","CENTER_NAME":"EARTH","SEMIMAJOR_AXIS":"6925.370","OBJECT_ID":"2021-044E","INCLINATION":"53.0554","REF_FRAME":"TEME","NORAD_CAT_ID":"48642","REV_AT_EPOCH":"9482","APOAPSIS":"548.252","EPOCH":"2023-02-13T04:44:11.761440","RA_OF_ASC_NODE":"111.7018","BSTAR":"-0.00005940900000","ECCENTRICITY":"0.00014680","OBJECT_TYPE":"PAYLOAD","LAUNCH_DATE":"2021-05-26","RCS_SIZE":"LARGE","MEAN_MOTION":"15.06392929","MEAN_MOTION_DDOT":"0.0000000000000","FILE":"3789366","SITE":"AFETR","DECAY_DATE":null,"TIME_SYSTEM":"UTC","COUNTRY_CODE":"US","CLASSIFICATION_TYPE":"U","MEAN_ELEMENT_THEORY":"SGP4","PERIAPSIS":"546.219","ARG_OF_PERICENTER":"88.5027","PERIOD":"95.593","TLE_LINE2":"2 48642  53.0554 111.7018 0001468  88.5027 271.6130 15.06392929 94825","MEAN_MOTION_DOT":"-0.00001166","ELEMENT_SET_NO":"999","OBJECT_NAME":"STARLINK-2646"},{"CENTER_NAME":"EARTH","SEMIMAJOR_AXIS":"6925.308","TLE_LINE1":"1 48643U 21044F   23044.44431240  .00027115  00000-0  18316-2 0  9998","GP_ID":"225323519","MEAN_ANOMALY":"280.0526","EPHEMERIS_TYPE":"0","OBJECT_ID":"2021-044F","INCLINATION":"53.0525","EPOCH":"2023-02-13T10:39:48.591360","APOAPSIS":"548.376","REV_AT_EPOCH":"9486","NORAD_CAT_ID":"48643","REF_FRAME":"TEME","ECCENTRICITY":"0.00017380","BSTAR":"0.00183160000000","RA_OF_ASC_NODE":"110.5845","FILE":"3789366","SITE":"AFETR","RCS_SIZE":"LARGE","MEAN_MOTION_DDOT":"0.0000000000000","MEAN_MOTION":"15.06413278","OBJECT_TYPE":"PAYLOAD","LAUNCH_DATE":"2021-05-26","CLASSIFICATION_TYPE":"U","PERIAPSIS":"545.969","MEAN_ELEMENT_THEORY":"SGP4","COUNTRY_CODE":"US","TIME_SYSTEM":"UTC","DECAY_DATE":null,"OBJECT_NAME":"STARLINK-2704","ELEMENT_SET_NO":"999","MEAN_MOTION_DOT":"0.00027115","TLE_LINE2":"2 48643  53.0525 110.5845 0001738  80.0659 280.0526 15.06413278 94865","ARG_OF_PERICENTER":"80.0659","PERIOD":"95.591"},{"ECCENTRICITY":"0.00016310","BSTAR":"0.00013136000000","RA_OF_ASC_NODE":"110.6096","FILE":"3789366","SITE":"AFETR","MEAN_MOTION":"15.06399730","RCS_SIZE":"LARGE","MEAN_MOTION_DDOT":"0.0000000000000","LAUNCH_DATE":"2021-05-26","OBJECT_TYPE":"PAYLOAD","MEAN_ELEMENT_THEORY":"SGP4","PERIAPSIS":"546.085","CLASSIFICATION_TYPE":"U","COUNTRY_CODE":"US","TIME_SYSTEM":"UTC","DECAY_DATE":null,"OBJECT_NAME":"STARLINK-2695","MEAN_MOTION_DOT":"0.00001676","ELEMENT_SET_NO":"999","TLE_LINE2":"2 48644  53.0527 110.6096 0001631  76.2266 283.8905 15.06399730 94868","PERIOD":"95.592","ARG_OF_PERICENTER":"76.2266","CENTER_NAME":"EARTH","SEMIMAJOR_AXIS":"6925.349","GP_ID":"225323771","TLE_LINE1":"1 48644U 21044G   23044.44157329  .00001676  00000-0  13136-3 0  9992","MEAN_ANOMALY":"283.8905","EPHEMERIS_TYPE":"0","INCLINATION":"53.0527","OBJECT_ID":"2021-044G","EPOCH":"2023-02-13T10:35:51.932256","APOAPSIS":"548.344","REV_AT_EPOCH":"9486","NORAD_CAT_ID":"48644","REF_FRAME":"TEME"},{"GP_ID":"225324499","TLE_LINE1":"1 48645U 21044H   23044.43788650  .00001852  00000-0  14317-3 0  9997","SEMIMAJOR_AXIS":"6925.349","CENTER_NAME":"EARTH","EPHEMERIS_TYPE":"0","MEAN_ANOMALY":"265.4917","REV_AT_EPOCH":"9486","APOAPSIS":"548.137","EPOCH":"2023-02-13T10:30:33.393600","REF_FRAME":"TEME","NORAD_CAT_ID":"48645","OBJECT_ID":"2021-044H","INCLINATION":"53.0524","SITE":"AFETR","FILE":"3789366","OBJECT_TYPE":"PAYLOAD","LAUNCH_DATE":"2021-05-26","MEAN_MOTION_DDOT":"0.0000000000000","RCS_SIZE":"LARGE","MEAN_MOTION":"15.06399764","BSTAR":"0.00014317000000","ECCENTRICITY":"0.00013330","RA_OF_ASC_NODE":"110.6366","MEAN_MOTION_DOT":"0.00001852","ELEMENT_SET_NO":"999","OBJECT_NAME":"STARLINK-2733","PERIOD":"95.592","ARG_OF_PERICENTER":"94.6224","TLE_LINE2":"2 48645  53.0524 110.6366 0001333  94.6224 265.4917 15.06399764 94869","COUNTRY_CODE":"US","TIME_SYSTEM":"UTC","MEAN_ELEMENT_THEORY":"SGP4","PERIAPSIS":"546.291","CLASSIFICATION_TYPE":"U","DECAY_DATE":null},{"SEMIMAJOR_AXIS":"6925.176","CENTER_NAME":"EARTH","TLE_LINE1":"1 48646U 21044J   23044.43418288  .00020927  00000-0  14175-2 0  9990","GP_ID":"225322770","MEAN_ANOMALY":"274.5656","EPHEMERIS_TYPE":"0","OBJECT_ID":"2021-044J","INCLINATION":"53.0512","EPOCH":"2023-02-13T10:25:13.400832","APOAPSIS":"547.810","REV_AT_EPOCH":"9486","NORAD_CAT_ID":"48646","REF_FRAME":"TEME","ECCENTRICITY":"0.00011110","BSTAR":"0.00141750000000","RA_OF_ASC_NODE":"110.6508","SITE":"AFETR","FILE":"3789366","RCS_SIZE":"LARGE","MEAN_MOTION_DDOT":"0.0000000000000","MEAN_MOTION":"15.06456339","OBJECT_TYPE":"PAYLOAD","LAUNCH_DATE":"2021-05-26","CLASSIFICATION_TYPE":"U","MEAN_ELEMENT_THEORY":"SGP4","PERIAPSIS":"546.272","COUNTRY_CODE":"US","TIME_SYSTEM":"UTC","DECAY_DATE":null,"OBJECT_NAME":"STARLINK-2732","MEAN_MOTION_DOT":"0.00020927","ELEMENT_SET_NO":"999","TLE_LINE2":"2 48646  53.0512 110.6508 0001111  85.5460 274.5656 15.06456339 94863","ARG_OF_PERICENTER":"85.5460","PERIOD":"95.589"},{"MEAN_MOTION_DOT":"0.00002508","ELEMENT_SET_NO":"999","OBJECT_NAME":"STARLINK-2691","ARG_OF_PERICENTER":"78.6492","PERIOD":"95.593","TLE_LINE2":"2 48647  53.0533 111.8618 0001467  78.6492 281.4662 15.06390819 94824","COUNTRY_CODE":"US","TIME_SYSTEM":"UTC","CLASSIFICATION_TYPE":"U","MEAN_ELEMENT_THEORY":"SGP4","PERIAPSIS":"546.226","DECAY_DATE":null,"SITE":"AFETR","FILE":"3789366","OBJECT_TYPE":"PAYLOAD","LAUNCH_DATE":"2021-05-26","MEAN_MOTION_DDOT":"0.0000000000000","RCS_SIZE":"LARGE","MEAN_MOTION":"15.06390819","BSTAR":"0.00018726000000","ECCENTRICITY":"0.00014670","RA_OF_ASC_NODE":"111.8618","REV_AT_EPOCH":"9482","APOAPSIS":"548.258","EPOCH":"2023-02-13T03:57:47.508480","REF_FRAME":"TEME","NORAD_CAT_ID":"48647","OBJECT_ID":"2021-044K","INCLINATION":"53.0533","TLE_LINE1":"1 48647U 21044K   23044.16513320  .00002508  00000-0  18726-3 0  9996","GP_ID":"225323020","CENTER_NAME":"EARTH","SEMIMAJOR_AXIS":"6925.377","EPHEMERIS_TYPE":"0","MEAN_ANOMALY":"281.4662"},{"BSTAR":"0.00098434000000","ECCENTRICITY":"0.00017640","RA_OF_ASC_NODE":"109.8687","SITE":"AFETR","FILE":"3789491","LAUNCH_DATE":"2021-05-26","OBJECT_TYPE":"PAYLOAD","RCS_SIZE":"LARGE","MEAN_MOTION":"15.06419736","MEAN_MOTION_DDOT":"0.0000000000000","COUNTRY_CODE":"US","TIME_SYSTEM":"UTC","PERIAPSIS":"545.931","MEAN_ELEMENT_THEORY":"SGP4","CLASSIFICATION_TYPE":"U","DECAY_DATE":null,"MEAN_MOTION_DOT":"0.00014418","ELEMENT_SET_NO":"999","OBJECT_NAME":"STARLINK-2521","PERIOD":"95.591","ARG_OF_PERICENTER":"91.9048","TLE_LINE2":"2 48648  53.0507 109.8687 0001764  91.9048 268.2143 15.06419736 95732","GP_ID":"225330441","TLE_LINE1":"1 48648U 21044L   23044.64431866  .00014418  00000-0  98434-3 0  9991","SEMIMAJOR_AXIS":"6925.288","CENTER_NAME":"EARTH","EPHEMERIS_TYPE":"0","MEAN_ANOMALY":"268.2143","OBJECT_ID":"2021-044L","INCLINATION":"53.0507","REV_AT_EPOCH":"9573","APOAPSIS":"548.375","EPOCH":"2023-02-13T15:27:49.132224","REF_FRAME":"TEME","NORAD_CAT_ID":"48648"},{"MEAN_MOTION_DDOT":"0.0000000000000","RCS_SIZE":"LARGE","MEAN_MOTION":"15.06413642","OBJECT_TYPE":"PAYLOAD","LAUNCH_DATE":"2021-05-26","FILE":"3789366","SITE":"AFETR","RA_OF_ASC_NODE":"111.8693","ECCENTRICITY":"0.00018330","BSTAR":"0.00146610000000","TLE_LINE2":"2 48649  53.0534 111.8693 0001833  81.3704 278.7493 15.06413642 94814","ARG_OF_PERICENTER":"81.3704","PERIOD":"95.591","OBJECT_NAME":"STARLINK-2673","MEAN_MOTION_DOT":"0.00021632","ELEMENT_SET_NO":"999","DECAY_DATE":null,"CLASSIFICATION_TYPE":"U","MEAN_ELEMENT_THEORY":"SGP4","PERIAPSIS":"545.902","TIME_SYSTEM":"UTC","COUNTRY_CODE":"US","MEAN_ANOMALY":"278.7493","EPHEMERIS_TYPE":"0","SEMIMAJOR_AXIS":"6925.307","CENTER_NAME":"EARTH","TLE_LINE1":"1 48649U 21044M   23044.16144247  .00021632  00000-0  14661-2 0  9998","GP_ID":"225324000","NORAD_CAT_ID":"48649","REF_FRAME":"TEME","EPOCH":"2023-02-13T03:52:28.629408","REV_AT_EPOCH":"9481","APOAPSIS":"548.441","OBJECT_ID":"2021-044M","INCLINATION":"53.0534"},{"CENTER_NAME":"EARTH","SEMIMAJOR_AXIS":"6925.393","TLE_LINE1":"1 48650U 21044N   23044.55584654 -.00001773  00000-0 -10021-3 0  9996","GP_ID":"225323270","MEAN_ANOMALY":"282.2793","EPHEMERIS_TYPE":"0","EPOCH":"2023-02-13T13:20:25.141056","APOAPSIS":"548.315","REV_AT_EPOCH":"9487","NORAD_CAT_ID":"48650","REF_FRAME":"TEME","INCLINATION":"53.0530","OBJECT_ID":"2021-044N","FILE":"3789366","SITE":"AFETR","MEAN_MOTION_DDOT":"0.0000000000000","RCS_SIZE":"LARGE","MEAN_MOTION":"15.06385607","LAUNCH_DATE":"2021-05-26","OBJECT_TYPE":"PAYLOAD","ECCENTRICITY":"0.00015270","BSTAR":"-0.00010021000000","RA_OF_ASC_NODE":"110.0931","OBJECT_NAME":"STARLINK-2672","MEAN_MOTION_DOT":"-0.00001773","ELEMENT_SET_NO":"999","TLE_LINE2":"2 48650  53.0530 110.0931 0001527  77.8367 282.2793 15.06385607 94871","ARG_OF_PERICENTER":"77.8367","PERIOD":"95.593","CLASSIFICATION_TYPE":"U","PERIAPSIS":"546.200","MEAN_ELEMENT_THEORY":"SGP4","COUNTRY_CODE":"US","TIME_SYSTEM":"UTC","DECAY_DATE":null}];
